BEIDOU-3 M15 (C34)      
1 43648U 18078B   25118.08794534 -.00000060  00000+0  00000+0 0  9991
2 43648  54.4576 314.4998 0004980  41.4423 318.6040  1.86232131 44440
BEIDOU-3 G1 (C59)       
1 43683U 18085A   25118.91410660 -.00000276  00000+0  00000+0 0  9994
2 43683   2.9832  99.3202 0004060   9.9920 216.9768  1.00270440 23905
COSMOS 2529 (757)       
1 43687U 18086A   25118.82541293  .00000037  00000+0  00000+0 0  9990
2 43687  64.2918 206.5900 0009966 257.0753 102.8651  2.13101950 50450
BEIDOU-3 M17 (C36)      
1 43706U 18093A   25118.24273487  .00000046  00000+0  00000+0 0  9993
2 43706  54.1845 196.3741 0008812 284.7526  75.2194  1.86228194 43818
BEIDOU-3 M18 (C37)      
1 43707U 18093B   25118.10553977  .00000046  00000+0  00000+0 0  9994
2 43707  54.1853 196.3705 0006841 315.9099  44.1048  1.86229626 43803
GPS BIII-1  (PRN 04)    
1 43873U 18109A   25118.31314134  .00000039  00000+0  00000+0 0  9991
2 43873  55.4415 108.5697 0033215 197.9120 246.8511  2.00568236 46751
BEIDOU-3 IGSO-1 (C38)   
1 44204U 19023A   25118.68586582 -.00000241  00000+0  00000+0 0  9990
2 44204  58.1088  41.9328 0020704 226.3728 313.5890  1.00259746  3057
BEIDOU-2 G8 (C01)       
1 44231U 19027A   25118.91497539 -.00000247  00000+0  00000+0 0  9999
2 44231   1.5677  74.8697 0005004 254.5809   1.6126  1.00270167 21929
COSMOS 2534 (758)       
1 44299U 19030A   25118.28400323  .00000038  00000+0  00000+0 0  9999
2 44299  64.3651 206.5914 0011668 279.3545 159.5447  2.13102152 46089
BEIDOU-3 IGSO-2 (C39)   
1 44337U 19035A   25114.72187163 -.00000081  00000+0  00000+0 0  9995
2 44337  55.2004 162.5366 0035877 209.0481 220.1698  1.00287515 21473
GPS BIII-2  (PRN 18)    
1 44506U 19056A   25119.08597116 -.00000084  00000+0  00000+0 0  9996
2 44506  55.7939 347.5783 0050498 193.2230 350.5531  2.00561251 41764
BEIDOU-3 M24 (C46)      
1 44542U 19061A   25117.10236787  .00000046  00000+0  00000+0 0  9994
2 44542  54.4122 196.7613 0007546 359.6190   0.4443  1.86228940 38047
BEIDOU-3 M23 (C45)      
1 44543U 19061B   25118.41952520  .00000045  00000+0  00000+0 0  9999
2 44543  54.4106 196.6855 0004597 340.8307  95.0261  1.86229041 38076
EUTELSAT 5 WEST B (EGN*)
1 44624U 19067A   25119.17088171 -.00000043  00000+0  00000+0 0  9990
2 44624   0.0799  36.4847 0002865 359.1351 238.2533  1.00272072 20275
BEIDOU-3 IGSO-3 (C40)   
1 44709U 19073A   25117.86160824 -.00000206  00000+0  00000+0 0  9992
2 44709  55.5139 285.3713 0043537 181.9211 177.9665  1.00260595 20290
BEIDOU-3 M22 (C44)      
1 44793U 19078A   25118.55599285 -.00000062  00000+0  00000+0 0  9994
2 44793  54.3085 314.3751 0006939  36.9067 323.1471  1.86231988 36923
BEIDOU-3 M21 (C43)      
1 44794U 19078B   25117.61441182 -.00000058  00000+0  00000+0 0  9998
2 44794  54.2825 314.3775 0004925  34.3750 325.6673  1.86227627 36910
COSMOS 2544 (759)       
1 44850U 19088A   25118.67149207  .00000014  00000+0  00000+0 0  9993
2 44850  65.3403  87.5879 0014972 262.5576  97.2419  2.13101914 41867
BEIDOU-3 M19 (C41)      
1 44864U 19090A   25118.60904113 -.00000022  00000+0  00000+0 0  9999
2 44864  56.1950  76.5329 0019559 290.3089 210.0181  1.86231336 36517
BEIDOU-3 M20 (C42)      
1 44865U 19090B   25118.80211782 -.00000023  00000+0  00000+0 0  9996
2 44865  56.1968  76.5603 0017399 302.6941  56.7482  1.86231238 36493
BEIDOU-3 G2 (C60)       
1 45344U 20017A   25119.11640773 -.00000142  00000+0  00000+0 0  9993
2 45344   2.7901  39.3700 0002487 339.2876 320.6079  1.00271209 19124
COSMOS 2545 (760)       
1 45358U 20018A   25116.99113762 -.00000031  00000+0  00000+0 0  9992
2 45358  64.5961 327.0125 0007121 244.5879 115.3823  2.13102434 39799
BEIDOU-3 G3 (C61)       
1 45807U 20040A   25118.90828560 -.00000354  00000+0  00000+0 0  9996
2 45807   1.4471  62.8019 0002379 317.2311 274.6331  1.00271543 17915
GPS BIII-3  (PRN 23)    
1 45854U 20041A   25118.16353082 -.00000070  00000+0  00000+0 0  9994
2 45854  56.3801  45.0915 0051866 199.5446 341.4467  2.00567198 35712
GALAXY 30 (WAAS/PRN 135)
1 46114U 20056C   25118.56462983  .00000038  00000+0  00000+0 0  9998
2 46114   0.0113 274.5372 0001978 113.6780 266.8177  1.00271881 17131
COSMOS 2547 (705K)      
1 46805U 20075A   25118.58483791  .00000038  00000+0  00000+0 0  9998
2 46805  64.5951 206.3165 0007857 237.4069 122.5685  2.13100320 35072
GPS BIII-4  (PRN 14)    
1 46826U 20078A   25118.68328843  .00000010  00000+0  00000+0 0  9991
2 46826  54.0736 227.5943 0057821 200.3629 325.7191  2.00558086 33198
GPS BIII-5  (PRN 11)    
1 48859U 21054A   25118.72306848 -.00000084  00000+0  00000+0 0  9992
2 48859  55.3261 349.0979 0018860 228.2192 156.5803  2.00566563 28447
QZS-1R (QZSS/PRN 196)   
1 49336U 21096A   25118.80927964 -.00000224  00000+0  00000+0 0  9992
2 49336  36.6031  85.7551 0753406 270.7098 288.5504  1.00270658 12852
GSAT0223 (GALILEO 27)   
1 49809U 21116A   25119.15272372 -.00000088  00000+0  00000+0 0  9993
2 49809  57.2685 352.8512 0000502 243.3542 294.3855  1.70475280 21116
GSAT0224 (GALILEO 28)   
1 49810U 21116B   25117.20810104 -.00000080  00000+0  00000+0 0  9992
2 49810  57.2695 352.9026 0000372 346.2730 190.5630  1.70475285 21110
COSMOS 2557 (706K)      
1 52984U 22075A   25118.28256937 -.00000042  00000+0  00000+0 0  9998
2 52984  64.5309 329.0687 0010751 283.9459  75.9755  2.13101914 21874
COSMOS 2559 (707K)      
1 54031U 22130A   25091.00919060 -.00000051  00000+0  00000+0 0  9998
2 54031  64.5157 330.1326 0005192 225.6156 134.3984  2.13101195 19268
COSMOS 2564 (761)       
1 54377U 22161A   25118.41550129  .00000038  00000+0  00000+0 0  9991
2 54377  64.7368 206.4837 0010364 218.6180 141.3580  2.13101907 18793
GPS BIII-6  (PRN 28)    
1 55268U 23009A   25116.25889756  .00000085  00000+0  00000+0 0  9996
2 55268  55.0899 164.8920 0002639 329.8223 113.3861  2.00572017 16883
BEIDOU-3 G4 (C62)       
1 56564U 23066A   25119.13221995 -.00000113  00000+0  00000+0 0  9997
2 56564   1.3422 291.4086 0003056 204.8361 288.6959  1.00272147  7253
NVS-01 (IRNSS-1J)       
1 56759U 23076A   25118.91202146 -.00000338  00000+0  00000+0 0  9995
2 56759   3.1885 258.5249 0005750  40.7137  15.6898  1.00266540  6965
COSMOS 2569 (703K)      
1 57517U 23114A   25118.43026219  .00000013  00000+0  00000+0 0  9992
2 57517  65.0715  86.6319 0012640 295.8332  64.0060  2.13103759 13426
BEIDOU-3 M28 (C50)      
1 58654U 23207A   25118.23143174 -.00000022  00000+0  00000+0 0  9997
2 58654  55.3825  76.3428 0004560 311.4098  48.5109  1.86229797  9118
BEIDOU-3 M26 (C48)      
1 58655U 23207B   25118.56805234 -.00000024  00000+0  00000+0 0  9998
2 58655  55.3849  76.3174 0004977 293.3439  66.5632  1.86231498  9103
GSAT0225 (GALILEO 29)   
1 59598U 24079A   25116.34315200  .00000068  00000+0  00000+0 0  9993
2 59598  54.8679 112.7400 0003044 262.6146  95.3814  1.70474526  6204
GSAT0227 (GALILEO 30)   
1 59600U 24079C   25118.28950102  .00000050  00000+0  00000+0 0  9999
2 59600  54.8629 112.6853 0000584 332.7137  27.2798  1.70474452  6291
GSAT0232 (GALILEO 32)   
1 61182U 24167A   25118.61470759 -.00000007  00000+0  00000+0 0  9990
2 61182  55.3213 232.6871 0003658 203.9938 190.6544  1.70474047  3819
GSAT0226 (GALILEO 31)   
1 61183U 24167B   25118.42201694 -.00000007  00000+0  00000+0 0  9990
2 61183  55.3203 232.6982 0002024 171.7154 217.2461  1.70474163  3789
BEIDOU-3 M25 (C47)      
1 61186U 24168B   25118.15395507 -.00000061  00000+0  00000+0 0  9991
2 61186  54.8367 316.6249 0003600 306.5203 253.7670  1.86229804  4055
BEIDOU-3 M27 (C49)      
1 61187U 24168C   25117.80266324 -.00000059  00000+0  00000+0 0  9994
2 61187  54.8324 316.6215 0002382  26.1048  73.5339  1.86229914  1521
GPS BIII-7  (PRN 01)    
1 62339U 24242A   25117.27859329 -.00000079  00000+0  00000+0 0  9993
2 62339  54.9825 351.0238 0005139 342.3516 197.1652  2.00557393  2919
NVS-02 (IRNSS-1K)       
1 62850U 25020A   25112.01547669  .00008238 -14398-6  63830-3 0  9995
2 62850  21.0665  52.5431 7387800 232.8801  34.8653  2.17491987  1806
COSMOS 2584 (704K)      
1 63130U 25042A   25118.31677852  .00000014  00000+0  00000+0 0  9995
2 63130  64.8528  86.9306 0007342 236.5715 123.3284  2.13103559  1200
